      2.10          N: GNSS NAV DATA                        RINEX VERSION / TYPE
fic2rin                                 02/07/2022 00:17:41 PGM / RUN BY / DATE
                                                            END OF HEADER
32 22  2  6 12  0  0.0-6.293365731835e-05-6.593836587854e-12 0.000000000000e+00
    2.400000000000e+01-5.900000000000e+01 4.646979279625e-09-2.719369120136e+00
   -3.011897206306e-06 5.535108502954e-03 9.052455425262e-06 5.153774297714e+03
    4.320000000000e+04 4.656612873077e-08 2.903396033870e-01-1.434236764908e-07
    9.582911909146e-01 2.021250000000e+02-2.361472366540e+00-8.034620388475e-09
   -2.096515899731e-10 1.000000000000e+00 2.196000000000e+03 0.000000000000e+00
    2.400000000000e+00 0.000000000000e+00 4.656612873077e-10 2.400000000000e+01
    3.600000000000e+04 4.000000000000e+00
24 22  2  6 12  0  0.0 2.757064066827e-04-1.364242052659e-12 0.000000000000e+00
    2.200000000000e+01 3.515625000000e+01 5.133070955866e-09 9.818212875633e-01
    2.074986696243e-06 1.232487254310e-02 1.071579754353e-05 5.153702480316e+03
    4.320000000000e+04-1.266598701477e-07 1.268397649762e+00 1.173466444016e-07
    9.342110239018e-01 1.593437500000e+02 8.064703177544e-01-8.463209669510e-09
   -6.928860043404e-11 1.000000000000e+00 2.196000000000e+03 0.000000000000e+00
    2.400000000000e+00 0.000000000000e+00 2.328306436539e-09 2.200000000000e+01
    3.600000000000e+04 4.000000000000e+00
26 22  2  6 12  0  0.0 1.808996312320e-04 3.296918293927e-12 0.000000000000e+00
    1.800000000000e+01 2.956250000000e+01 5.158786312728e-09-1.539175939142e+00
    1.512467861176e-06 6.848246091977e-03 4.658475518227e-06 5.153694976807e+03
    4.320000000000e+04 2.793967723846e-08 2.340483829655e+00-9.126961231232e-08
    9.385980987097e-01 2.780312500000e+02 3.644170687136e-01-8.492853761449e-09
   -2.500104139373e-12 1.000000000000e+00 2.196000000000e+03 0.000000000000e+00
    2.400000000000e+00 0.000000000000e+00 6.984919309616e-09 1.800000000000e+01
    3.600000000000e+04 4.000000000000e+00
31 22  2  6 12  0  0.0-1.634540967643e-04-1.818989403546e-12 0.000000000000e+00
    5.000000000000e+01 4.440625000000e+01 4.651265172436e-09-4.362718494565e-01
    2.333894371986e-06 1.045623573009e-02 9.050592780113e-06 5.153687528610e+03
    4.320000000000e+04 1.471489667892e-07 1.369085486694e+00 8.568167686462e-08
    9.549189014166e-01 2.024062500000e+02 3.735962389029e-01-8.219985252523e-09
    6.750281176306e-11 1.000000000000e+00 2.196000000000e+03 0.000000000000e+00
    2.400000000000e+00 0.000000000000e+00-1.350417733192e-08 5.000000000000e+01
    3.600000000000e+04 4.000000000000e+00
25 22  2  6 12  0  0.0 2.816501073539e-04 5.456968210638e-12 0.000000000000e+00
    2.600000000000e+01 3.434375000000e+01 4.896632535828e-09-8.880750130089e-01
    1.857057213783e-06 1.046759204473e-02 4.960224032402e-06 5.153711076736e+03
    4.320000000000e+04 3.725290298462e-08 2.387313313456e+00 2.421438694000e-07
    9.577800619669e-01 2.809375000000e+02 9.787307107369e-01-8.473567243802e-09
   -9.071806448581e-11 1.000000000000e+00 2.196000000000e+03 0.000000000000e+00
    2.400000000000e+00 0.000000000000e+00 5.587935447693e-09 2.600000000000e+01
    3.600000000000e+04 4.000000000000e+00
13 22  2  6 12  0  0.0 2.572820521891e-04 6.139089236967e-12 0.000000000000e+00
    6.900000000000e+01-4.643750000000e+01 4.423041380284e-09 2.372888404304e+00
   -2.466142177582e-06 5.800628336146e-03 1.005455851555e-05 5.153674718857e+03
    4.320000000000e+04 5.587935447693e-09 4.318304755183e-01-1.303851604462e-07
    9.688456328352e-01 1.886875000000e+02 9.638319580298e-01-7.844612473883e-09
   -2.489389407347e-10 1.000000000000e+00 2.196000000000e+03 0.000000000000e+00
    2.400000000000e+00 0.000000000000e+00-1.117587089539e-08 6.900000000000e+01
    3.600000000000e+04 4.000000000000e+00
11 22  2  6 12  0  0.0-9.819865226746e-05 1.330136001343e-11 0.000000000000e+00
    1.790000000000e+02 1.715625000000e+01 4.358038672661e-09 2.833244238989e+00
    9.834766387939e-07 2.811372978613e-04 8.959323167801e-06 5.153771556854e+03
    4.320000000000e+04-2.235174179077e-08-1.740473038214e+00 2.048909664154e-08
    9.617279409719e-01 2.017812500000e+02 2.845799721701e+00-8.059978587603e-09
    3.743013054375e-10 1.000000000000e+00 2.196000000000e+03 0.000000000000e+00
    2.400000000000e+00 6.300000000000e+01-8.847564458847e-09 9.470000000000e+02
    3.600000000000e+04 4.000000000000e+00
29 22  2  6 12  0  0.0-4.767789505422e-04-4.774847184308e-12 0.000000000000e+00
    1.000000000000e+02-3.443750000000e+01 3.931592338030e-09 3.025676459729e+00
   -1.760199666023e-06 1.803934923373e-03 8.124858140945e-06 5.153755599976e+03
    4.320000000000e+04 2.235174179077e-08-2.769269862931e+00-6.332993507385e-08
    9.822009221194e-01 2.348750000000e+02 2.266637174765e+00-7.800682072577e-09
   -2.632252501025e-10 1.000000000000e+00 2.196000000000e+03 0.000000000000e+00
    3.400000000000e+00 0.000000000000e+00-1.024454832077e-08 1.000000000000e+02
    3.600000000000e+04 4.000000000000e+00
16 22  2  6 12  0  0.0-4.658708348870e-04-5.002220859751e-12 0.000000000000e+00
    5.600000000000e+01 1.821875000000e+01 4.460542942375e-09-2.494345369668e+00
    8.810311555862e-07 1.272862381302e-02 4.775822162628e-06 5.153598037720e+03
    4.320000000000e+04 1.173466444016e-07 2.482544291866e+00-1.322478055954e-07
    9.703633869357e-01 2.934062500000e+02 7.052544200603e-01-8.050692486514e-09
   -2.821546100149e-11 1.000000000000e+00 2.196000000000e+03 0.000000000000e+00
    2.400000000000e+00 0.000000000000e+00-1.024454832077e-08 5.600000000000e+01
    3.600000000000e+04 4.000000000000e+00
30 22  2  6 12  0  0.0-5.116700194776e-04-2.387423592154e-12 0.000000000000e+00
    5.800000000000e+01 5.637500000000e+01 5.064853828635e-09 4.826432702009e-02
    2.786517143250e-06 5.485162022524e-03 9.546056389809e-06 5.153587446213e+03
    4.320000000000e+04 2.235174179077e-08 1.364297464077e+00 5.215406417847e-08
    9.358559070464e-01 1.784062500000e+02-2.748529195570e+00-8.411421798052e-09
    4.214461263514e-11 1.000000000000e+00 2.196000000000e+03 0.000000000000e+00
    2.400000000000e+00 0.000000000000e+00 3.725290298462e-09 5.800000000000e+01
    3.600000000000e+04 4.000000000000e+00
21 22  2  6 12  0  0.0 1.575630158186e-04 6.821210263297e-13 0.000000000000e+00
    4.400000000000e+01 3.456250000000e+01 4.321251426038e-09 3.043372926230e+00
    1.730397343636e-06 2.457123133354e-02 8.692964911461e-06 5.153591072083e+03
    4.320000000000e+04 2.048909664154e-07-1.875142667127e+00 3.781169652939e-07
    9.592308890282e-01 2.034687500000e+02-1.010829374587e+00-7.712821269964e-09
    2.560820954186e-10 1.000000000000e+00 2.196000000000e+03 0.000000000000e+00
    2.400000000000e+00 0.000000000000e+00-1.024454832077e-08 4.400000000000e+01
    3.600000000000e+04 4.000000000000e+00
19 22  2  6 12  0  0.0 1.153489574790e-04 5.002220859751e-12 0.000000000000e+00
    8.500000000000e+01-3.162500000000e+01 3.940521281385e-09-1.009945255657e+00
   -1.592561602592e-06 8.947610971518e-03 8.989125490189e-06 5.153684131622e+03
    4.320000000000e+04-1.098960638046e-07-2.737384824620e+00 3.911554813385e-08
    9.789317025147e-01 2.183437500000e+02 2.004380542655e+00-7.970689154054e-09
   -1.389343586023e-10 1.000000000000e+00 2.196000000000e+03 0.000000000000e+00
    2.400000000000e+00 0.000000000000e+00-1.583248376846e-08 8.500000000000e+01
    3.600000000000e+04 4.000000000000e+00
20 22  2  6 12  0  0.0 5.168253555894e-04-2.273736754432e-13 0.000000000000e+00
    7.100000000000e+01 4.687500000000e+00 5.301292248672e-09 1.712303086217e+00
    1.117587089539e-07 5.202318541706e-03 5.196779966354e-06 5.153737333298e+03
    4.320000000000e+04 3.166496753693e-08-9.030932319952e-01 6.146728992462e-08
    9.416088002089e-01 2.675312500000e+02 3.124482706058e+00-8.565713939225e-09
    2.014369620866e-10 1.000000000000e+00 2.196000000000e+03 0.000000000000e+00
    2.400000000000e+00 0.000000000000e+00-8.381903171539e-09 7.100000000000e+01
    3.600000000000e+04 4.000000000000e+00
23 22  2  6 12  0  0.0 3.900844603777e-06-3.637978807092e-12 0.000000000000e+00
    1.310000000000e+02-8.875000000000e+00 4.709481883110e-09-1.805801061148e-02
   -4.284083843231e-07 1.973164267838e-03 5.142763257027e-06 5.153697736740e+03
    4.320000000000e+04-2.235174179077e-08-7.765408307969e-01-9.313225746155e-09
    9.673594411922e-01 2.836562500000e+02 2.951991882997e+00-8.249986502195e-09
    2.039370662260e-10 1.000000000000e+00 2.196000000000e+03 0.000000000000e+00
    2.400000000000e+00 0.000000000000e+00-8.381903171539e-09 6.430000000000e+02
    3.600000000000e+04 4.000000000000e+00
18 22  2  6 12  0  0.0 2.459036186337e-04-7.844391802792e-12 0.000000000000e+00
    9.300000000000e+01 1.378125000000e+01 4.213746948045e-09 8.831649830236e-01
    7.580965757370e-07 2.097001881339e-03 8.763745427132e-06 5.153623163223e+03
    4.320000000000e+04 3.725290298462e-08-1.776513689897e+00 4.656612873077e-08
    9.704185974640e-01 2.166250000000e+02 3.104966777621e+00-7.938187800242e-09
    3.060841782060e-10 1.000000000000e+00 2.196000000000e+03 0.000000000000e+00
    2.400000000000e+00 0.000000000000e+00-8.381903171539e-09 3.490000000000e+02
    3.600000000000e+04 4.000000000000e+00
28 22  2  6 12  0  0.0 4.063374362886e-04-8.071765478235e-12 0.000000000000e+00
    3.900000000000e+01 2.953125000000e+01 4.441613582462e-09-2.934501597245e+00
    1.516193151474e-06 1.686310674995e-02 4.746019840240e-06 5.153695590973e+03
    4.320000000000e+04 1.285225152969e-07 2.486009339148e+00 7.078051567078e-08
    9.695109972360e-01 2.916250000000e+02-1.289838089357e+00-7.888542875189e-09
   -1.114332130692e-10 1.000000000000e+00 2.196000000000e+03 0.000000000000e+00
    2.400000000000e+00 6.300000000000e+01-1.117587089539e-08 3.900000000000e+01
    3.600000000000e+04 4.000000000000e+00
